{
  "type": "FeatureCollection",
  "features": [
    {
      "type": "Feature",
      "properties": {
        "norad_id": 36074,
        "name": "COSMOS 2251 DEB",
        "group": "cosmos-2251-debris",
        "lat": 33.76494742658644,
        "lon": 123.35176821230432,
        "alt_km": 749.5855340103999,
        "timestamp": "2025-12-26T17:24:55.116697+00:00",
        "meta_object_name": "COSMOS 2251 DEB",
        "meta_object_id": "1993-036AYM",
        "meta_epoch": "2025-12-22T22:57:11.517120",
        "meta_mean_motion": 14.43796912,
        "meta_eccentricity": 0.0041956,
        "meta_inclination": 73.994,
        "meta_ra_of_asc_node": 321.4388,
        "meta_arg_of_pericenter": 50.2945,
        "meta_mean_anomaly": 310.1898,
        "meta_ephemeris_type": 0,
        "meta_classification_type": "U",
        "meta_norad_cat_id": 36074,
        "meta_element_set_no": 999,
        "meta_rev_at_epoch": 86057,
        "meta_bstar": 0.001160749,
        "meta_mean_motion_dot": 3.969e-05,
        "meta_mean_motion_ddot": 0,
        "tle_line1": "1 36074U 93036AYM 25356.95638330  .00003969  00000+0  11607-2 0  9992",
        "tle_line2": "2 36074  73.9940 321.4388 0041956  50.2945 310.1898 14.43796912860575"
      },
      "geometry": {
        "type": "Point",
        "coordinates": [
          123.35176821230432,
          33.76494742658644
        ]
      }
    },
    {
      "type": "Feature",
      "properties": {
        "norad_id": 36366,
        "name": "COSMOS 2251 DEB",
        "group": "cosmos-2251-debris",
        "lat": -71.60369987295176,
        "lon": -171.6615697803831,
        "alt_km": 722.8615657997007,
        "timestamp": "2025-12-26T17:24:55.116707+00:00",
        "meta_object_name": "COSMOS 2251 DEB",
        "meta_object_id": "1993-036AYT",
        "meta_epoch": "2025-12-21T17:11:32.767008",
        "meta_mean_motion": 14.33460542,
        "meta_eccentricity": 0.00902396,
        "meta_inclination": 74.0657,
        "meta_ra_of_asc_node": 256.6822,
        "meta_arg_of_pericenter": 283.124,
        "meta_mean_anomaly": 75.9853,
        "meta_ephemeris_type": 0,
        "meta_classification_type": "U",
        "meta_norad_cat_id": 36366,
        "meta_element_set_no": 999,
        "meta_rev_at_epoch": 86417,
        "meta_bstar": 0.0010533139,
        "meta_mean_motion_dot": 3.019e-05,
        "meta_mean_motion_ddot": 0,
        "tle_line1": "1 36366U 93036AYT 25355.71635147  .00003019  00000+0  10533-2 0  9995",
        "tle_line2": "2 36366  74.0657 256.6822 0090239 283.1240  75.9853 14.33460542864174"
      },
      "geometry": {
        "type": "Point",
        "coordinates": [
          -171.6615697803831,
          -71.60369987295176
        ]
      }
    },
    {
      "type": "Feature",
      "properties": {
        "norad_id": 36367,
        "name": "COSMOS 2251 DEB",
        "group": "cosmos-2251-debris",
        "lat": 66.90822313325758,
        "lon": -14.124484063763113,
        "alt_km": 1123.305236831191,
        "timestamp": "2025-12-26T17:24:55.116716+00:00",
        "meta_object_name": "COSMOS 2251 DEB",
        "meta_object_id": "1993-036AYU",
        "meta_epoch": "2025-12-24T07:44:10.721184",
        "meta_mean_motion": 13.86386722,
        "meta_eccentricity": 0.02617345,
        "meta_inclination": 74.0995,
        "meta_ra_of_asc_node": 211.8828,
        "meta_arg_of_pericenter": 282.2009,
        "meta_mean_anomaly": 74.9918,
        "meta_ephemeris_type": 0,
        "meta_classification_type": "U",
        "meta_norad_cat_id": 36367,
        "meta_element_set_no": 999,
        "meta_rev_at_epoch": 57690,
        "meta_bstar": 0.0017134049,
        "meta_mean_motion_dot": 2.573e-05,
        "meta_mean_motion_ddot": 0,
        "tle_line1": "1 36367U 93036AYU 25358.32234631  .00002573  00000+0  17134-2 0  9997",
        "tle_line2": "2 36367  74.0995 211.8828 0261734 282.2009  74.9918 13.86386722576908"
      },
      "geometry": {
        "type": "Point",
        "coordinates": [
          -14.124484063763113,
          66.90822313325758
        ]
      }
    },
    {
      "type": "Feature",
      "properties": {
        "norad_id": 36369,
        "name": "COSMOS 2251 DEB",
        "group": "cosmos-2251-debris",
        "lat": -20.02092621278348,
        "lon": 37.462710246113254,
        "alt_km": 659.428812999493,
        "timestamp": "2025-12-26T17:24:55.116726+00:00",
        "meta_object_name": "COSMOS 2251 DEB",
        "meta_object_id": "1993-036AYW",
        "meta_epoch": "2025-12-21T10:25:50.498400",
        "meta_mean_motion": 14.73682344,
        "meta_eccentricity": 0.0010476,
        "meta_inclination": 74.0314,
        "meta_ra_of_asc_node": 53.7689,
        "meta_arg_of_pericenter": 128.4088,
        "meta_mean_anomaly": 231.8027,
        "meta_ephemeris_type": 0,
        "meta_classification_type": "U",
        "meta_norad_cat_id": 36369,
        "meta_element_set_no": 999,
        "meta_rev_at_epoch": 86050,
        "meta_bstar": 0.00084133,
        "meta_mean_motion_dot": 5.466e-05,
        "meta_mean_motion_ddot": 0,
        "tle_line1": "1 36369U 93036AYW 25355.43461225  .00005466  00000+0  84133-3 0  9997",
        "tle_line2": "2 36369  74.0314  53.7689 0010476 128.4088 231.8027 14.73682344860509"
      },
      "geometry": {
        "type": "Point",
        "coordinates": [
          37.462710246113254,
          -20.02092621278348
        ]
      }
    },
    {
      "type": "Feature",
      "properties": {
        "norad_id": 36371,
        "name": "COSMOS 2251 DEB",
        "group": "cosmos-2251-debris",
        "lat": 69.57294048133872,
        "lon": -95.98319334144445,
        "alt_km": 649.0197431250181,
        "timestamp": "2025-12-26T17:24:55.116736+00:00",
        "meta_object_name": "COSMOS 2251 DEB",
        "meta_object_id": "1993-036AYY",
        "meta_epoch": "2025-12-24T15:58:44.173920",
        "meta_mean_motion": 14.70864576,
        "meta_eccentricity": 0.00085465,
        "meta_inclination": 74.0132,
        "meta_ra_of_asc_node": 138.3528,
        "meta_arg_of_pericenter": 177.886,
        "meta_mean_anomaly": 182.2349,
        "meta_ephemeris_type": 0,
        "meta_classification_type": "U",
        "meta_norad_cat_id": 36371,
        "meta_element_set_no": 999,
        "meta_rev_at_epoch": 71620,
        "meta_bstar": 0.0022493193,
        "meta_mean_motion_dot": 0.00013763,
        "meta_mean_motion_ddot": 0,
        "tle_line1": "1 36371U 93036AYY 25358.66578905  .00013763  00000+0  22493-2 0  9991",
        "tle_line2": "2 36371  74.0132 138.3528 0008546 177.8860 182.2349 14.70864576716202"
      },
      "geometry": {
        "type": "Point",
        "coordinates": [
          -95.98319334144445,
          69.57294048133872
        ]
      }
    },
    {
      "type": "Feature",
      "properties": {
        "norad_id": 36379,
        "name": "COSMOS 2251 DEB",
        "group": "cosmos-2251-debris",
        "lat": -36.94009868741834,
        "lon": -91.33804534161347,
        "alt_km": 774.4193608746218,
        "timestamp": "2025-12-26T17:24:55.116745+00:00",
        "meta_object_name": "COSMOS 2251 DEB",
        "meta_object_id": "1993-036AZG",
        "meta_epoch": "2025-12-21T02:14:38.502816",
        "meta_mean_motion": 14.36091919,
        "meta_eccentricity": 0.00448164,
        "meta_inclination": 74.0129,
        "meta_ra_of_asc_node": 291.4624,
        "meta_arg_of_pericenter": 57.9805,
        "meta_mean_anomaly": 317.791,
        "meta_ephemeris_type": 0,
        "meta_classification_type": "U",
        "meta_norad_cat_id": 36379,
        "meta_element_set_no": 999,
        "meta_rev_at_epoch": 64948,
        "meta_bstar": 0.00021634378,
        "meta_mean_motion_dot": 6.11e-06,
        "meta_mean_motion_ddot": 0,
        "tle_line1": "1 36379U 93036AZG 25355.09350119  .00000611  00000+0  21634-3 0  9993",
        "tle_line2": "2 36379  74.0129 291.4624 0044816  57.9805 317.7910 14.36091919649480"
      },
      "geometry": {
        "type": "Point",
        "coordinates": [
          -91.33804534161347,
          -36.94009868741834
        ]
      }
    },
    {
      "type": "Feature",
      "properties": {
        "norad_id": 36385,
        "name": "COSMOS 2251 DEB",
        "group": "cosmos-2251-debris",
        "lat": -43.1485670900548,
        "lon": 111.55169237739975,
        "alt_km": 562.5695428492618,
        "timestamp": "2025-12-26T17:24:55.116755+00:00",
        "meta_object_name": "COSMOS 2251 DEB",
        "meta_object_id": "1993-036AZN",
        "meta_epoch": "2025-12-25T18:47:37.629888",
        "meta_mean_motion": 14.72809922,
        "meta_eccentricity": 0.01417407,
        "meta_inclination": 73.9695,
        "meta_ra_of_asc_node": 129.0297,
        "meta_arg_of_pericenter": 300.5644,
        "meta_mean_anomaly": 58.1605,
        "meta_ephemeris_type": 0,
        "meta_classification_type": "U",
        "meta_norad_cat_id": 36385,
        "meta_element_set_no": 999,
        "meta_rev_at_epoch": 85294,
        "meta_bstar": 0.0015922173,
        "meta_mean_motion_dot": 0.00011929,
        "meta_mean_motion_ddot": 0,
        "tle_line1": "1 36385U 93036AZN 25359.78307442  .00011929  00000+0  15922-2 0  9997",
        "tle_line2": "2 36385  73.9695 129.0297 0141740 300.5644  58.1605 14.72809922852942"
      },
      "geometry": {
        "type": "Point",
        "coordinates": [
          111.55169237739975,
          -43.1485670900548
        ]
      }
    }
  ]
}